     2.11           N: GPS NAV DATA                         RINEX VERSION / TYPE
teqc  2019Feb25                         20221121 12:26:16UTCPGM / RUN BY / DATE
OSX ker:10.11.6|Core i5|gcc 4.3 -m64|OSX ker:10.10+|=+      COMMENT
    4.6566D-09  1.4901D-08 -5.9605D-08 -1.1921D-07          ION ALPHA
    7.7824D+04  4.9152D+04 -6.5536D+04 -2.6214D+05          ION BETA
   -2.793967723846D-09-5.329070518201D-15    61440     1545 DELTA-UTC: A0,A1,T,W
                                                            END OF HEADER
18 09  8 15 12  0  0.0 5.271285772324D-06 2.842170943040D-12 0.000000000000D+00
    1.070000000000D+02 1.096875000000D+02 4.860916762409D-09-8.364268847885D-01
    5.925074219704D-06 1.083341031335D-02 7.715076208115D-06 5.153624237061D+03
    5.616000000000D+05 1.378357410431D-07-7.018662110878D-01 1.732259988785D-07
    9.411816632398D-01 2.205625000000D+02-2.393538209822D+00-8.278916278665D-09
   -7.857470152314D-12 1.000000000000D+00 1.544000000000D+03 0.000000000000D+00
    2.000000000000D+00 0.000000000000D+00-1.071020960808D-08 1.070000000000D+02
    5.544180000000D+05 4.000000000000D+00
 9 09  8 15 11 59 44.0 7.210345938802D-05 2.046363078989D-12 0.000000000000D+00
    3.500000000000D+01-9.015625000000D+01 4.408397913182D-09 4.355220527388D-01
   -4.656612873077D-06 2.075314638205D-02 5.343928933144D-06 5.153632499695D+03
    5.615840000000D+05-2.365559339523D-07 1.331406603755D+00-5.587935447693D-09
    9.770643753617D-01 2.899375000000D+02 1.503694413285D+00-8.494996707854D-09
   -2.364384200378D-10 1.000000000000D+00 1.544000000000D+03 0.000000000000D+00
    2.000000000000D+00 0.000000000000D+00-5.587935447693D-09 3.500000000000D+01
    5.544180000000D+05 4.000000000000D+00
27 09  8 15 12  0  0.0 7.441965863109D-05 3.183231456205D-12 0.000000000000D+00
    6.100000000000D+01-1.008750000000D+02 4.186602960247D-09-2.533110593630D+00
   -4.978850483894D-06 2.131706569344D-02 4.064291715622D-06 5.153759790421D+03
    5.616000000000D+05 2.067536115646D-07 1.307154836451D+00 2.514570951462D-07
    9.751205244267D-01 3.004062500000D+02-1.559078559251D+00-7.742465361903D-09
    1.785788670980D-12 1.000000000000D+00 1.544000000000D+03 0.000000000000D+00
    2.000000000000D+00 0.000000000000D+00-4.190951585770D-09 6.100000000000D+01
    5.544180000000D+05 4.000000000000D+00
22 09  8 15 12  0  0.0 1.932298764586D-04-1.023181539495D-12 0.000000000000D+00
    2.700000000000D+01 1.175625000000D+02 4.871988652169D-09-1.858237800229D+00
    6.087124347687D-06 5.275979056023D-03 8.087605237961D-06 5.153663146973D+03
    5.616000000000D+05 8.381903171539D-08-6.963475091660D-01 4.284083843231D-08
    9.388532901394D-01 2.077500000000D+02-1.897648108158D+00-8.134624554050D-09
    1.000041655749D-11 1.000000000000D+00 1.544000000000D+03 0.000000000000D+00
    2.000000000000D+00 0.000000000000D+00-1.769512891769D-08 2.700000000000D+01
    5.544180000000D+05 4.000000000000D+00
15 09  8 15 12  0  0.0-3.143241629004D-04-1.818989403546D-12 0.000000000000D+00
    9.000000000000D+00 4.800000000000D+01 4.874488756308D-09-2.465334684502D+00
    2.631917595863D-06 1.565918675624D-03 2.674758434296D-06 5.153647289276D+03
    5.616000000000D+05-2.793967723846D-08 3.020314933726D-01-5.029141902924D-08
    9.562153321039D-01 3.269062500000D+02-5.062997161583D-01-8.355705191517D-09
    1.278624688422D-10 1.000000000000D+00 1.544000000000D+03 0.000000000000D+00
    2.000000000000D+00 0.000000000000D+00-9.778887033463D-09 9.000000000000D+00
    5.544180000000D+05 4.000000000000D+00
28 09  8 15 12  0  0.0-2.620648592710D-05-1.136868377216D-13 0.000000000000D+00
    3.800000000000D+01-6.025000000000D+01 4.166959284866D-09-1.620478910468D+00
   -3.200024366379D-06 1.499268587213D-02 9.555369615555D-06 5.153652021408D+03
    5.616000000000D+05 3.874301910400D-07 2.442915570268D+00 6.891787052155D-08
    9.674900812396D-01 1.985937500000D+02-2.019915389698D+00-7.638889618986D-09
    1.210764718925D-10 1.000000000000D+00 1.544000000000D+03 0.000000000000D+00
    2.000000000000D+00 0.000000000000D+00-1.071020960808D-08 3.800000000000D+01
    5.544180000000D+05 4.000000000000D+00
19 09  8 15 12  0  0.0 1.504784449935D-05-1.591615728103D-12 0.000000000000D+00
    8.100000000000D+01 2.281250000000D+00 4.667694428209D-09-2.791774164348D+00
    1.806765794754D-07 5.805237800814D-03 7.446855306625D-06 5.153635255814D+03
    5.616000000000D+05-4.656612873077D-08-2.750364436541D+00 2.607703208923D-08
    9.577903360405D-01 2.350937500000D+02-2.935633028328D-01-7.929973172356D-09
    2.235807416067D-10 1.000000000000D+00 1.544000000000D+03 0.000000000000D+00
    2.000000000000D+00 0.000000000000D+00-1.443549990654D-08 8.100000000000D+01
    5.544180000000D+05 4.000000000000D+00
26 09  8 15 12  0  0.0 6.446242332458D-05-3.410605131648D-13 0.000000000000D+00
    9.400000000000D+01 4.006250000000D+01 4.189460222120D-09 9.314331253341D-01
    2.246350049973D-06 2.019569242839D-02 3.149732947350D-06 5.154915254593D+03
    5.616000000000D+05-2.384185791016D-07 3.744542930215D-01 1.117587089539D-07
    9.926382413557D-01 3.400312500000D+02 1.031786449956D+00-8.400707066026D-09
   -9.357532635937D-11 1.000000000000D+00 1.544000000000D+03 0.000000000000D+00
    2.800000000000D+00 0.000000000000D+00-6.519258022308D-09 9.400000000000D+01
    5.544180000000D+05 4.000000000000D+00
14 09  8 15 11 59 44.0-6.491411477327D-05 5.456968210638D-12 0.000000000000D+00
    4.400000000000D+01 4.465625000000D+01 4.173745281815D-09-2.667077401588D+00
    2.328306436539D-06 4.778026835993D-03 2.417713403702D-06 5.153635992050D+03
    5.615840000000D+05 9.499490261078D-08 3.569902242243D-01-8.568167686462D-08
    9.882829733127D-01 3.470625000000D+02-2.166363732785D+00-8.089622679541D-09
    1.167905790821D-10 1.000000000000D+00 1.544000000000D+03 0.000000000000D+00
    2.000000000000D+00 0.000000000000D+00-9.313225746155D-09 4.400000000000D+01
    5.548080000000D+05 4.000000000000D+00
26 09  8 15 11 59 44.0 6.446661427617D-05-3.410605131648D-13 0.000000000000D+00
    4.000000000000D+00 4.006250000000D+01 4.189460222120D-09 9.291009881455D-01
    2.246350049973D-06 2.019569138065D-02 3.149732947350D-06 5.154915260315D+03
    5.615840000000D+05-2.384185791016D-07 3.744544232212D-01 1.117587089539D-07
    9.926382618365D-01 3.400312500000D+02 1.031786455807D+00-8.400707066026D-09
   -9.357532635937D-11 1.000000000000D+00 1.544000000000D+03 0.000000000000D+00
    2.000000000000D+00 0.000000000000D+00-6.519258022308D-09 4.000000000000D+00
    5.562480000000D+05 4.000000000000D+00
11 09  8 15 12  0  0.0-1.517497003078D-05-1.705302565824D-12 0.000000000000D+00
    4.200000000000D+01 1.875000000000D+00 6.354193249083D-09 1.217215763774D+00
    1.098960638046D-07 9.641635115258D-03 7.068738341331D-06 5.153689424515D+03
    5.616000000000D+05-1.303851604462D-07-1.995460251912D+00 3.352761268616D-08
    8.889714877450D-01 2.056562500000D+02 7.138558312350D-01-8.946444083878D-09
   -3.578720496645D-10 1.000000000000D+00 1.544000000000D+03 0.000000000000D+00
    2.000000000000D+00 0.000000000000D+00-1.164153218269D-08 4.200000000000D+01
    5.567280000000D+05 4.000000000000D+00
17 09  8 15 12  0  0.0 7.749581709504D-05 2.614797267597D-12 0.000000000000D+00
    1.260000000000D+02-1.781250000000D+00 4.573047628647D-09-2.166353417750D+00
    4.470348358154D-08 4.613361204974D-03 7.430091500282D-06 5.153714122772D+03
    5.616000000000D+05-1.676380634308D-08-2.806165679470D+00-5.774199962616D-08
    9.601202583712D-01 2.363125000000D+02-2.634911425951D+00-7.879971089568D-09
    2.425101015191D-10 1.000000000000D+00 1.544000000000D+03 0.000000000000D+00
    2.800000000000D+00 0.000000000000D+00-1.024454832077D-08 1.260000000000D+02
    5.570280000000D+05 4.000000000000D+00
12 09  8 15 12  0  0.0-2.341605722904D-04 5.911715561524D-12 0.000000000000D+00
    1.090000000000D+02-6.853125000000D+01 4.265891977238D-09 1.368627360732D+00
   -3.594905138016D-06 3.157693310641D-03 9.387731552124D-06 5.153599369049D+03
    5.616000000000D+05 3.911554813385D-08 2.417765593207D+00 5.960464477539D-08
    9.678655333130D-01 1.982187500000D+02-6.072271366476D-01-7.776395346651D-09
    2.046513816944D-10 1.000000000000D+00 1.544000000000D+03 0.000000000000D+00
    2.000000000000D+00 0.000000000000D+00-1.164153218269D-08 1.090000000000D+02
    5.575680000000D+05 4.000000000000D+00
30 09  8 15 12  0  0.0 1.689349301159D-04 2.955857780762D-12 0.000000000000D+00
    1.590000000000D+02-7.190625000000D+01 4.660551273525D-09-1.120260990955D+00
   -3.699213266373D-06 1.182465499733D-02 9.628012776375D-06 5.153683227539D+03
    5.616000000000D+05-1.601874828339D-07 2.368723638916D+00 2.812594175339D-07
    9.529423659660D-01 1.882812500000D+02 1.440907179156D+00-8.116052351872D-09
    1.810789712374D-10 1.000000000000D+00 1.544000000000D+03 0.000000000000D+00
    2.000000000000D+00 0.000000000000D+00-8.381903171539D-09 1.590000000000D+02
    5.605380000000D+05 4.000000000000D+00
32 09  8 15 12  0  0.0 2.145776525140D-04-6.593836587854D-12 0.000000000000D+00
    1.170000000000D+02 1.027812500000D+02 4.299464804252D-09 2.114743301993D+00
    5.178153514862D-06 1.323428866453D-02 8.316710591316D-06 5.153753675461D+03
    5.616000000000D+05 1.844018697739D-07-6.445130797911D-01 3.539025783539D-08
    9.629179077959D-01 2.203437500000D+02-1.133150838224D+00-7.718178635977D-09
   -1.146476326769D-10 1.000000000000D+00 1.544000000000D+03 0.000000000000D+00
    2.000000000000D+00 0.000000000000D+00-3.259629011154D-09 1.170000000000D+02
    5.612580000000D+05 4.000000000000D+00
